[{"OBJECT_NAME":"STARLINK-1556","OBJECT_ID":"2020-055G","EPOCH":"2026-03-10T00:00:02.999808","MEAN_MOTION":15.19594502,"ECCENTRICITY":0.00019373,"INCLINATION":53.1095,"RA_OF_ASC_NODE":124.8078,"ARG_OF_PERICENTER":90.9986,"MEAN_ANOMALY":131.2843,"EPHEMERIS_TYPE":0,"CLASSIFICATION_TYPE":"U","NORAD_CAT_ID":46033,"ELEMENT_SET_NO":999,"REV_AT_EPOCH":574,"BSTAR":0.005702776,"MEAN_MOTION_DOT":0.0012472,"MEAN_MOTION_DDOT":0},{"OBJECT_NAME":"UNICORN-2L","OBJECT_ID":"2023-185R","EPOCH":"2026-03-09T22:52:50.754144","MEAN_MOTION":15.19481875,"ECCENTRICITY":0.00120211,"INCLINATION":97.5467,"RA_OF_ASC_NODE":142.778,"ARG_OF_PERICENTER":300.2318,"MEAN_ANOMALY":59.7725,"EPHEMERIS_TYPE":0,"CLASSIFICATION_TYPE":"U","NORAD_CAT_ID":58727,"ELEMENT_SET_NO":999,"REV_AT_EPOCH":11971,"BSTAR":0.00055843151,"MEAN_MOTION_DOT":0.0001181,"MEAN_MOTION_DDOT":0}]
